[{"OBJECT_NAME":"STARLINK-1215","OBJECT_ID":"2020-012AZ","EPOCH":"2026-03-09T23:34:27.559488","MEAN_MOTION":15.30203883,"ECCENTRICITY":0.00013943,"INCLINATION":53.1616,"RA_OF_ASC_NODE":356.9455,"ARG_OF_PERICENTER":74.9207,"MEAN_ANOMALY":285.1948,"EPHEMERIS_TYPE":0,"CLASSIFICATION_TYPE":"U","NORAD_CAT_ID":45225,"ELEMENT_SET_NO":999,"REV_AT_EPOCH":33552,"BSTAR":0.00012456515,"MEAN_MOTION_DOT":3.332e-5,"MEAN_MOTION_DDOT":0},{"OBJECT_NAME":"TOMORROW-S2","OBJECT_ID":"2024-149T","EPOCH":"2026-03-09T18:02:42.746496","MEAN_MOTION":15.30674935,"ECCENTRICITY":0.0001648,"INCLINATION":97.3857,"RA_OF_ASC_NODE":150.0385,"ARG_OF_PERICENTER":234.3331,"MEAN_ANOMALY":125.7757,"EPHEMERIS_TYPE":0,"CLASSIFICATION_TYPE":"U","NORAD_CAT_ID":60485,"ELEMENT_SET_NO":999,"REV_AT_EPOCH":8686,"BSTAR":0.00027683033,"MEAN_MOTION_DOT":8.133e-5,"MEAN_MOTION_DDOT":0}]
